{"type": "FeatureCollection", "features": [ {"type": "Feature", "properties": {"norad_id": 66909, "name": "SILVERSAT", "group": "last-30-days", "lat": -43.05778898268607, "lon": -48.91350955051474, "alt_km": 410.388545544959, "timestamp": "2025-12-24T14:43:27.722200+00:00", "meta": {"OBJECT_NAME": "SILVERSAT", "OBJECT_ID": "1998-067XV", "EPOCH": "2025-12-24T05:58:18.632928", "MEAN_MOTION": 15.53164124, "ECCENTRICITY": 0.00038593, "INCLINATION": 51.6308, "RA_OF_ASC_NODE": 85.1451, "ARG_OF_PERICENTER": 300.0708, "MEAN_ANOMALY": 59.99, "EPHEMERIS_TYPE": 0, "CLASSIFICATION_TYPE": "U", "NORAD_CAT_ID": 66909, "ELEMENT_SET_NO": 999, "REV_AT_EPOCH": 340, "BSTAR": 0.0012166372, "MEAN_MOTION_DOT": 0.00078073, "MEAN_MOTION_DDOT": 0}, "tle": {"line1": "1 66909U 98067XV  25358.24882677  .00078073  00000+0  12166-2 0  9999", "line2": "2 66909  51.6308  85.1451 0003859 300.0708  59.9900 15.53164124  3403"}}, "geometry": {"type": "Point", "coordinates": [-48.91350955051474, -43.05778898268607]}}, {"type": "Feature", "properties": {"norad_id": 66910, "name": "1998-067XW", "group": "last-30-days", "lat": -47.431159420751186, "lon": -37.09057108716675, "alt_km": 409.54225422986383, "timestamp": "2025-12-24T14:43:27.722212+00:00", "meta": {"OBJECT_NAME": "1998-067XW", "OBJECT_ID": "1998-067XW", "EPOCH": "2025-12-23T11:23:56.481792", "MEAN_MOTION": 15.5298943, "ECCENTRICITY": 0.00039882, "INCLINATION": 51.6309, "RA_OF_ASC_NODE": 88.9767, "ARG_OF_PERICENTER": 265.4983, "MEAN_ANOMALY": 94.5551, "EPHEMERIS_TYPE": 0, "CLASSIFICATION_TYPE": "U", "NORAD_CAT_ID": 66910, "ELEMENT_SET_NO": 999, "REV_AT_EPOCH": 328, "BSTAR": 0.00097986031, "MEAN_MOTION_DOT": 0.00062264, "MEAN_MOTION_DDOT": 0}, "tle": {"line1": "1 66910U 98067XW  25357.47495928  .00062264  00000+0  97986-3 0  9993", "line2": "2 66910  51.6309  88.9767 0003988 265.4983  94.5551 15.52989430  3286"}}, "geometry": {"type": "Point", "coordinates": [-37.09057108716675, -47.431159420751186]}}, {"type": "Feature", "properties": {"norad_id": 66911, "name": "1998-067XX", "group": "last-30-days", "lat": -51.608761004290095, "lon": -6.025299696807318, "alt_km": 408.28883439852143, "timestamp": "2025-12-24T14:43:27.722223+00:00", "meta": {"OBJECT_NAME": "1998-067XX", "OBJECT_ID": "1998-067XX", "EPOCH": "2025-12-24T05:50:45.830400", "MEAN_MOTION": 15.53583862, "ECCENTRICITY": 0.00036335, "INCLINATION": 51.6309, "RA_OF_ASC_NODE": 85.1103, "ARG_OF_PERICENTER": 279.0791, "MEAN_ANOMALY": 80.9788, "EPHEMERIS_TYPE": 0, "CLASSIFICATION_TYPE": "U", "NORAD_CAT_ID": 66911, "ELEMENT_SET_NO": 999, "REV_AT_EPOCH": 339, "BSTAR": 0.0012104757, "MEAN_MOTION_DOT": 0.00078877, "MEAN_MOTION_DDOT": 0}, "tle": {"line1": "1 66911U 98067XX  25358.24358600  .00078877  00000+0  12105-2 0  9991", "line2": "2 66911  51.6309  85.1103 0003633 279.0791  80.9788 15.53583862  3398"}}, "geometry": {"type": "Point", "coordinates": [-6.025299696807318, -51.608761004290095]}}, {"type": "Feature", "properties": {"norad_id": 66912, "name": "1998-067XY", "group": "last-30-days", "lat": -16.151676543403447, "lon": -83.32602327992609, "alt_km": 412.46914195004047, "timestamp": "2025-12-24T14:43:27.722235+00:00", "meta": {"OBJECT_NAME": "1998-067XY", "OBJECT_ID": "1998-067XY", "EPOCH": "2025-12-23T06:57:34.859520", "MEAN_MOTION": 15.52133019, "ECCENTRICITY": 0.00038791, "INCLINATION": 51.6317, "RA_OF_ASC_NODE": 89.9922, "ARG_OF_PERICENTER": 281.5198, "MEAN_ANOMALY": 78.5356, "EPHEMERIS_TYPE": 0, "CLASSIFICATION_TYPE": "U", "NORAD_CAT_ID": 66912, "ELEMENT_SET_NO": 999, "REV_AT_EPOCH": 324, "BSTAR": 0.00084098106, "MEAN_MOTION_DOT": 0.00051669, "MEAN_MOTION_DDOT": 0}, "tle": {"line1": "1 66912U 98067XY  25357.28998680  .00051669  00000+0  84098-3 0  9994", "line2": "2 66912  51.6317  89.9922 0003879 281.5198  78.5356 15.52133019  3242"}}, "geometry": {"type": "Point", "coordinates": [-83.32602327992609, -16.151676543403447]}}, {"type": "Feature", "properties": {"norad_id": 66913, "name": "2025-284A", "group": "last-30-days", "lat": -73.08932564135999, "lon": -31.33192495538554, "alt_km": 537.4335946091505, "timestamp": "2025-12-24T14:43:27.722245+00:00", "meta": {"OBJECT_NAME": "2025-284A", "OBJECT_ID": "2025-284A", "EPOCH": "2025-12-23T02:34:46.438752", "MEAN_MOTION": 15.08893564, "ECCENTRICITY": 0.0013475, "INCLINATION": 80.4035, "RA_OF_ASC_NODE": 116.7336, "ARG_OF_PERICENTER": 259.6514, "MEAN_ANOMALY": 100.3189, "EPHEMERIS_TYPE": 0, "CLASSIFICATION_TYPE": "U", "NORAD_CAT_ID": 66913, "ELEMENT_SET_NO": 999, "REV_AT_EPOCH": 269, "BSTAR": 0.00055263602, "MEAN_MOTION_DOT": 8.748e-05, "MEAN_MOTION_DDOT": 0}, "tle": {"line1": "1 66913U 25284A   25357.10748193  .00008748  00000+0  55264-3 0  9992", "line2": "2 66913  80.4035 116.7336 0013475 259.6514 100.3189 15.08893564  2694"}}, "geometry": {"type": "Point", "coordinates": [-31.33192495538554, -73.08932564135999]}}, {"type": "Feature", "properties": {"norad_id": 66914, "name": "2025-284B", "group": "last-30-days", "lat": 24.611649693755705, "lon": -69.73021176385534, "alt_km": 504.4377509035976, "timestamp": "2025-12-24T14:43:27.722255+00:00", "meta": {"OBJECT_NAME": "2025-284B", "OBJECT_ID": "2025-284B", "EPOCH": "2025-12-16T06:51:11.417184", "MEAN_MOTION": 15.18985981, "ECCENTRICITY": 0.00081793, "INCLINATION": 80.4045, "RA_OF_ASC_NODE": 125.2713, "ARG_OF_PERICENTER": 234.9626, "MEAN_ANOMALY": 125.0834, "EPHEMERIS_TYPE": 0, "CLASSIFICATION_TYPE": "U", "NORAD_CAT_ID": 66914, "ELEMENT_SET_NO": 999, "REV_AT_EPOCH": 166, "BSTAR": 0.00038444995, "MEAN_MOTION_DOT": 8.068e-05, "MEAN_MOTION_DDOT": 0}, "tle": {"line1": "1 66914U 25284B   25350.28554881  .00008068  00000+0  38445-3 0  9991", "line2": "2 66914  80.4045 125.2713 0008179 234.9626 125.0834 15.18985981  1668"}}, "geometry": {"type": "Point", "coordinates": [-69.73021176385534, 24.611649693755705]}}, {"type": "Feature", "properties": {"norad_id": 66915, "name": "HULIANWANG DIGUI-105", "group": "last-30-days", "lat": 45.87597086951313, "lon": -171.02244517565265, "alt_km": 879.5249991203245, "timestamp": "2025-12-24T14:43:27.722265+00:00", "meta": {"OBJECT_NAME": "HULIANWANG DIGUI-105", "OBJECT_ID": "2025-285A", "EPOCH": "2025-12-24T07:21:59.292864", "MEAN_MOTION": 14.03719509, "ECCENTRICITY": 0.00081004, "INCLINATION": 50.0054, "RA_OF_ASC_NODE": 70.1701, "ARG_OF_PERICENTER": 321.3343, "MEAN_ANOMALY": 38.6981, "EPHEMERIS_TYPE": 0, "CLASSIFICATION_TYPE": "U", "NORAD_CAT_ID": 66915, "ELEMENT_SET_NO": 999, "REV_AT_EPOCH": 253, "BSTAR": 0.00011795146, "MEAN_MOTION_DOT": 3.5e-07, "MEAN_MOTION_DDOT": 0}, "tle": {"line1": "1 66915U 25285A   25358.30693626  .00000035  00000+0  11795-3 0  9990", "line2": "2 66915  50.0054  70.1701 0008100 321.3343  38.6981 14.03719509  2531"}}, "geometry": {"type": "Point", "coordinates": [-171.02244517565265, 45.87597086951313]}}, {"type": "Feature", "properties": {"norad_id": 66916, "name": "HULIANWANG DIGUI-106", "group": "last-30-days", "lat": 38.945965633032614, "lon": -153.82596629295668, "alt_km": 880.5313639881788, "timestamp": "2025-12-24T14:43:27.722276+00:00", "meta": {"OBJECT_NAME": "HULIANWANG DIGUI-106", "OBJECT_ID": "2025-285B", "EPOCH": "2025-12-24T07:17:52.092960", "MEAN_MOTION": 14.03704354, "ECCENTRICITY": 0.0006885, "INCLINATION": 50.0065, "RA_OF_ASC_NODE": 70.157, "ARG_OF_PERICENTER": 314.6179, "MEAN_ANOMALY": 45.4164, "EPHEMERIS_TYPE": 0, "CLASSIFICATION_TYPE": "U", "NORAD_CAT_ID": 66916, "ELEMENT_SET_NO": 999, "REV_AT_EPOCH": 253, "BSTAR": 0.00011289048, "MEAN_MOTION_DOT": 2.7e-07, "MEAN_MOTION_DDOT": 0}, "tle": {"line1": "1 66916U 25285B   25358.30407515  .00000027  00000+0  11289-3 0  9990", "line2": "2 66916  50.0065  70.1570 0006885 314.6179  45.4164 14.03704354  2539"}}, "geometry": {"type": "Point", "coordinates": [-153.82596629295668, 38.945965633032614]}}, {"type": "Feature", "properties": {"norad_id": 66917, "name": "HULIANWANG DIGUI-107", "group": "last-30-days", "lat": 33.65707284325748, "lon": -145.11369499293193, "alt_km": 881.9351699166309, "timestamp": "2025-12-24T14:43:27.722286+00:00", "meta": {"OBJECT_NAME": "HULIANWANG DIGUI-107", "OBJECT_ID": "2025-285C", "EPOCH": "2025-12-24T07:15:21.304224", "MEAN_MOTION": 14.03664374, "ECCENTRICITY": 0.00075235, "INCLINATION": 50.003, "RA_OF_ASC_NODE": 70.14, "ARG_OF_PERICENTER": 324.0008, "MEAN_ANOMALY": 36.0389, "EPHEMERIS_TYPE": 0, "CLASSIFICATION_TYPE": "U", "NORAD_CAT_ID": 66917, "ELEMENT_SET_NO": 999, "REV_AT_EPOCH": 253, "BSTAR": 0.00011486142, "MEAN_MOTION_DOT": 3e-07, "MEAN_MOTION_DDOT": 0}, "tle": {"line1": "1 66917U 25285C   25358.30232991  .00000030  00000+0  11486-3 0  9998", "line2": "2 66917  50.0030  70.1400 0007523 324.0008  36.0389 14.03664374  2532"}}, "geometry": {"type": "Point", "coordinates": [-145.11369499293193, 33.65707284325748]}}, {"type": "Feature", "properties": {"norad_id": 66918, "name": "HULIANWANG DIGUI-108", "group": "last-30-days", "lat": 31.672529826147866, "lon": -142.31951176137898, "alt_km": 881.9415925247895, "timestamp": "2025-12-24T14:43:27.722296+00:00", "meta": {"OBJECT_NAME": "HULIANWANG DIGUI-108", "OBJECT_ID": "2025-285D", "EPOCH": "2025-12-24T07:14:27.375072", "MEAN_MOTION": 14.03603458, "ECCENTRICITY": 0.00066699, "INCLINATION": 50.0062, "RA_OF_ASC_NODE": 70.1414, "ARG_OF_PERICENTER": 318.6086, "MEAN_ANOMALY": 41.4313, "EPHEMERIS_TYPE": 0, "CLASSIFICATION_TYPE": "U", "NORAD_CAT_ID": 66918, "ELEMENT_SET_NO": 999, "REV_AT_EPOCH": 253, "BSTAR": 0.00011568936, "MEAN_MOTION_DOT": 3.1e-07, "MEAN_MOTION_DDOT": 0}, "tle": {"line1": "1 66918U 25285D   25358.30170573  .00000031  00000+0  11569-3 0  9999", "line2": "2 66918  50.0062  70.1414 0006669 318.6086  41.4313 14.03603458  2531"}}, "geometry": {"type": "Point", "coordinates": [-142.31951176137898, 31.672529826147866]}}]}